2P/Encke,e,11.7796,334.5651,186.5557,2.214921,0.2989970,0.84834659,285.5247,07/04.0/2016,2000,g 11.5,6.0
# From MPC 92275
4P/Faye,e,9.1367,199.0379,204.9079,3.827498,0.1316229,0.57219908,100.6925,07/04.0/2016,2000,g  8.0,6.0
# From MPC 95735
6P/d'Arrest,e,19.4823,138.9301,178.0967,3.502310,0.1503738,0.61134102,73.6278,07/04.0/2016,2000,g  7.5,16.0
# From MPC 92984
7P/Pons-Winnecke,e,22.3380,93.4004,172.4969,3.418621,0.1559293,0.63771535,81.1505,07/04.0/2016,2000,g 10.0,6.0
# From MPC 75715
8P/Tuttle,e,54.9974,270.2985,207.5246,5.690530,0.0726064,0.82029379,223.4208,07/04.0/2016,2000,g  8.0,8.0
# From MPC 84319
9P/Tempel,e,10.4740,68.7496,179.2053,3.145441,0.1766777,0.50959463,354.7736,07/04.0/2016,2000,g  5.5,10.0
# From MPC 92984
10P/Tempel,e,12.0288,117.8018,195.5376,3.064059,0.1837631,0.53737058,42.7720,07/04.0/2016,2000,g  5.0,10.0
# From MPC 89730
11P/Tempel-Swift-LINEAR,e,13.6199,240.0718,164.2744,3.408584,0.1566185,0.54778669,105.9350,07/04.0/2016,2000,g 17.0,4.0
# From QJ 27, 604
12P/Pons-Brooks,e,74.2473,255.8401,199.1733,16.95126,0.0141222,0.95438993,319.7534,07/04.0/2016,2000,g  5.0,6.0
# From QJ 27, 604
13P/Olbers,e,44.6387,86.0760,64.5644,16.65275,0.0145036,0.93055160,317.7028,07/04.0/2016,2000,g  5.0,6.0
# From MPC 10028
14P/Wolf,e,27.9036,202.1197,159.0702,4.256385,0.1122387,0.35561400,302.0586,07/04.0/2016,2000,g  5.5,12.0
# From MPC 91617
15P/Finlay,e,6.8071,13.6891,347.8461,3.497541,0.1506815,0.71932140,83.6549,07/04.0/2016,2000,g 12.0,4.0
# From MPC 92276
16P/Brooks,e,4.3074,159.3432,220.2640,3.376354,0.1588664,0.56985970,118.9331,07/04.0/2016,2000,g  7.5,10.0
# From MPC 83523
17P/Holmes,e,19.0785,326.7741,24.7195,3.625094,0.1427990,0.43058724,118.5062,07/04.0/2016,2000,g 10.0,6.0
# From MPC 92984
19P/Borrelly,e,30.3752,75.3260,353.4791,3.601457,0.1442071,0.62562554,57.9805,07/04.0/2016,2000,g  4.5,10.0
# From MPC 94674
21P/Giacobini-Zinner,e,31.9694,195.4041,172.5222,3.513127,0.1496798,0.70774481,240.3034,07/04.0/2016,2000,g  9.0,6.0
# From MPC 94283
22P/Kopff,e,4.7370,120.8698,162.8964,3.445851,0.1540846,0.54782782,38.9686,07/04.0/2016,2000,g  3.0,10.4
# From MPC 14747
23P/Brorsen-Metcalf,e,19.4285,311.2494,129.9444,16.96385,0.0141064,0.97149703,0.0000,09/19.6203/1989,2000,g  7.8,3.2
# From MPC 56804
24P/Schaumasse,e,11.7332,79.6459,58.0310,4.085703,0.1193449,0.70476585,300.2352,07/04.0/2016,2000,g  6.5,14.0
# From MPC 94674
26P/Grigg-Skjellerup,e,22.4457,211.5315,2.1534,3.016101,0.1881635,0.64073477,205.7426,07/04.0/2016,2000,g 12.0,16.0
# From MPC 78188
27P/Crommelin,e,29.2139,250.5817,196.0291,9.216521,0.0352252,0.91874342,63.3388,07/04.0/2016,2000,g 12.0,8.0
# From MPC 75715
28P/Neujmin,e,14.3171,346.3505,347.5613,6.940009,0.0539093,0.77256714,267.5552,07/04.0/2016,2000,g  8.5,6.0
# From MPC 10028
29P/Schwassmann-Wachmann,e,9.3768,312.4089,49.0505,6.014850,0.0668139,0.04163191,293.5398,07/04.0/2016,2000,g  4.0,4.0
# From NK 2729
30P/Reinmuth,e,8.1284,119.7122,13.2546,3.770575,0.1346148,0.50223200,304.6603,07/04.0/2016,2000,g  9.5,6.0
# From MPC 79344
31P/Schwassmann-Wachmann,e,4.5463,114.1401,18.2787,4.247337,0.1125976,0.19389396,236.5552,07/04.0/2016,2000,g  5.0,8.0
# From MPC 92276
32P/Comas Sola,e,9.9714,57.8221,53.2828,4.504226,0.1031036,0.55584338,64.5095,07/04.0/2016,2000,g  6.5,8.0
# From MPC 84320
33P/Daniel,e,22.3941,66.4909,19.0686,4.023308,0.1221319,0.46307371,353.9594,07/04.0/2016,2000,g 10.0,12.0
# From QJ 15, 452
35P/Herschel-Rigollet,e,63.3476,355.5116,29.4861,28.56734,0.0064550,0.97330804,0.0000,03/18.4130/2092,2000,g  8.5,4.0
# From MPC 75716
36P/Whipple,e,9.9550,181.9687,200.0409,4.146833,0.1167157,0.26468121,193.1163,07/04.0/2016,2000,g  8.5,6.0
# From MPC 94674
37P/Forbes,e,8.9698,314.6526,330.0719,3.453190,0.1535937,0.53476529,257.2243,07/04.0/2016,2000,g 10.5,4.8
# From QJ 27, 605
38P/Stephan-Oterma,e,18.3603,78.0341,359.6158,11.27140,0.0260458,0.85926770,337.6032,07/04.0/2016,2000,g  3.5,12.0
# From MPC 75716
39P/Oterma,e,1.5332,299.9781,93.5979,7.419501,0.0487688,0.22397560,238.4060,07/04.0/2016,2000,g  5.0,6.0
# From MPC 10028
40P/Vaisala,e,11.4916,133.8414,47.3186,4.942478,0.0896989,0.63167521,53.4701,07/04.0/2016,2000,g  5.5,12.0
# From MPC 62882
41P/Tuttle-Giacobini-Kresak,e,9.2292,141.0769,62.1349,3.084502,0.1819393,0.66114364,308.3363,07/04.0/2016,2000,g 10.0,16.0
# From MPC 94283
42P/Neujmin,e,3.9845,150.2796,147.1041,4.875799,0.0915451,0.58420912,41.4515,07/04.0/2016,2000,g 13.0,6.0
# From MPC 84320
43P/Wolf-Harrington,e,15.9652,249.8332,191.5971,3.349226,0.1608005,0.59454921,352.4935,07/04.0/2016,2000,g  8.0,6.0
# From MPC 89313
44P/Reinmuth,e,5.8959,286.4587,58.2523,3.692338,0.1389159,0.42626889,65.0094,07/04.0/2016,2000,g  8.3,6.0
# From MPC 84320
45P/Honda-Mrkos-Pajdusakova,e,4.2496,89.0075,326.2719,3.024278,0.1874008,0.82392716,326.2323,07/04.0/2016,2000,g 13.5,8.0
# From MPC 88330
46P/Wirtanen,e,11.7499,82.1733,356.3564,3.089009,0.1815412,0.65863134,198.0659,07/04.0/2016,2000,g  9.0,6.0
# From NK 2718
47P/Ashbrook-Jackson,e,13.0309,356.9734,357.7108,4.124763,0.1176537,0.31681133,319.8384,07/04.0/2016,2000,g  1.0,11.2
# From MPC 94675
48P/Johnson,e,12.2409,111.0690,215.1717,3.512208,0.1497386,0.42866264,245.2039,07/04.0/2016,2000,g 10.0,6.0
# From MPC 94675
49P/Arend-Rigaux,e,19.0509,118.8351,332.9222,3.567790,0.1462531,0.59970741,251.5667,07/04.0/2016,2000,g 11.3,4.4
# From MPC 95735
50P/Arend,e,19.1392,355.1758,49.2232,4.083885,0.1194246,0.53014833,17.5329,07/04.0/2016,2000,g  9.5,6.0
# From NK 3014
51P-A/Harrington,e,5.4245,83.6906,269.2735,3.713410,0.1377351,0.54232773,44.9494,07/04.0/2016,2000,g 10.0,8.0
# From NK 3013
51P-D/Harrington,e,5.4253,83.6755,269.3120,3.712388,0.1377920,0.54226475,45.1173,07/04.0/2016,2000,g 16.0,8.0
# From MPC 88330
52P/Harrington-Abell,e,10.2317,336.8358,139.6602,3.859204,0.1300042,0.54005922,110.4569,07/04.0/2016,2000,g 13.5,6.0
# From MPC 10028
53P/Van Biesbroeck,e,6.6084,148.9229,134.1980,5.413410,0.0782524,0.55164784,5.0912,07/04.0/2016,2000,g  7.7,4.8
# From NK 2713
54P/de Vico-Swift-NEAT,e,6.0573,358.8527,1.8780,3.795743,0.1332781,0.42445085,321.9488,07/04.0/2016,2000,g 10.0,6.0
# From MPC 31070
55P/Tempel-Tuttle,e,162.3718,235.3967,172.6170,10.33803,0.0296515,0.90647678,198.5246,07/04.0/2016,2000,g 10.0,10.0
# From MPC 75716
56P/Slaughter-Burnham,e,8.1478,345.9858,44.2202,5.085113,0.0859514,0.50667212,358.7590,07/04.0/2016,2000,g  8.5,6.0
# From MPC 98565
57P/du Toit-Neujmin-Delporte,e,2.8485,188.8032,115.1909,3.451919,0.1536785,0.49930581,62.8168,07/04.0/2016,2000,g 12.5,6.0
# From MPC 65938
58P/Jackson-Neujmin,e,13.5306,160.5646,200.0052,4.050469,0.1209055,0.66669327,187.2449,07/04.0/2016,2000,g 15.5,6.0
# From MPC 94675
59P/Kearns-Kwee,e,9.3437,312.8448,127.7658,4.493118,0.1034862,0.47551152,276.7139,07/04.0/2016,2000,g  7.0,6.0
# From MPC 94675
60P/Tsuchinshan,e,3.6072,267.6359,216.5298,3.510092,0.1498740,0.53827962,226.6229,07/04.0/2016,2000,g 11.5,6.0
# From MPC 95213
61P/Shajn-Schaldach,e,6.0058,163.0183,221.9074,3.680190,0.1396043,0.42558028,38.5132,07/04.0/2016,2000,g  6.0,10.0
# From MPC 62881
62P/Tsuchinshan,e,9.7081,90.2609,30.3337,3.438925,0.1545504,0.59769660,282.7061,07/04.0/2016,2000,g  8.0,10.0
# From MPC 84320
63P/Wild,e,19.7849,357.9702,169.1412,5.595765,0.0744586,0.65102780,87.8539,07/04.0/2016,2000,g 10.5,6.0
# From MPC 94675
64P/Swift-Gehrels,e,8.9450,300.0205,97.1420,4.454038,0.1048512,0.68716744,270.5568,07/04.0/2016,2000,g  8.5,12.0
# From MPC 10028
65P/Gunn,e,9.1734,62.0799,213.1760,3.889718,0.1284774,0.25155818,299.8468,07/04.0/2016,2000,g  5.0,6.0
# From MPC 94675
66P/du Toit,e,18.6765,21.9033,257.3173,6.038812,0.0664166,0.78675617,314.5520,07/04.0/2016,2000,g 12.0,3.6
# From MPC 89011
67P/Churyumov-Gerasimenko,e,7.0442,50.0899,12.8414,3.464784,0.1528234,0.64137041,49.7907,07/04.0/2016,2000,g 11.0,4.0
# From MPC 75716
68P/Klemola,e,11.1947,175.2926,153.7424,4.903867,0.0907603,0.64035980,248.8732,07/04.0/2016,2000,g 10.0,4.0
# From MPC 77020
69P/Taylor,e,22.0409,104.8528,343.6657,3.888749,0.1285255,0.41355933,233.1144,07/04.0/2016,2000,g  9.5,12.0
# From MPC 92276
70P/Kojima,e,6.6002,119.2672,1.9415,3.673248,0.1400002,0.45364505,87.1458,07/04.0/2016,2000,g 11.0,6.0
# From NK 2721
71P/Clark,e,9.4437,59.4780,208.9310,3.137126,0.1773806,0.49474327,295.9642,07/04.0/2016,2000,g  9.8,6.0
# From MPC 89011
72P/Denning-Fujikawa,e,10.7911,27.1255,346.2732,4.319745,0.1097784,0.82109950,79.5344,07/04.0/2016,2000,g 17.5,10.0
# From NK 2710
73P/Schwassmann-Wachmann,e,11.2370,69.6824,199.3889,3.091341,0.1813358,0.68564107,313.6115,07/04.0/2016,2000,g 11.5,6.0
# From MPC 94675
74P/Smirnova-Chernykh,e,6.6534,77.0557,86.9381,4.157899,0.1162500,0.14919329,293.6785,07/04.0/2016,2000,g  5.0,6.0
# From MPC 82322
76P/West-Kohoutek-Ikemura,e,30.4694,84.1333,0.0838,3.472047,0.1523441,0.53816608,175.7641,07/04.0/2016,2000,g  8.0,12.0
# From MPC 10028
77P/Longmore,e,24.3463,14.8035,196.7257,3.616389,0.1433149,0.35357548,7.3606,07/04.0/2016,2000,g  7.0,8.0
# From MPC 79654
78P/Gehrels,e,6.2497,210.5569,192.7190,3.737852,0.1363864,0.46111914,223.1877,07/04.0/2016,2000,g  5.5,8.0
# From MPC 94675
79P/du Toit-Hartley,e,3.1455,280.5731,281.7541,2.945469,0.1949721,0.61910061,203.7741,07/04.0/2016,2000,g 16.0,4.0
# From MPC 89313
80P/Peters-Hartley,e,29.9237,259.8649,339.1464,4.023207,0.1221365,0.59926629,73.5120,07/04.0/2016,2000,g  9.0,8.0
# From MPC 98565
81P/Wild,e,3.2390,136.1263,41.6990,3.449126,0.1538653,0.53838555,357.4900,07/04.0/2016,2000,g  7.0,6.0
# From MPC 75717
82P/Gehrels,e,1.1273,239.3222,227.1225,4.144571,0.1168113,0.12323962,275.4272,07/04.0/2016,2000,g  5.0,8.0
# From MPC 69911
84P/Giclas,e,7.2712,112.0206,276.2554,3.622751,0.1429376,0.49968215,153.6228,07/04.0/2016,2000,g  9.5,8.0
# From MPC 79347
86P/Wild,e,15.4713,72.3980,179.1682,3.605247,0.1439798,0.37218765,65.8758,07/04.0/2016,2000,g 11.0,6.0
# From MPC 87068
87P/Bus,e,2.6019,181.8801,24.7670,3.440869,0.1544194,0.38939629,143.1482,07/04.0/2016,2000,g  7.2,10.0
# From MPC 95735
